*******************************************************************************
Ephemeris / WWW_USER Mon Jul 15 19:20:19 2024 Pasadena, USA      / Horizons    
*******************************************************************************
Target body name: (2019 AS11)                     {source: JPL#3}
Center body name: Earth (399)                     {source: DE441}
Center-site name: Gemini South Obs., Cerro Pachon
*******************************************************************************
Start time      : A.D. 2018-Dec-23 23:54:00.0000 UT      
Stop  time      : A.D. 2018-Dec-24 09:30:00.0000 UT      
Step-size       : 1 minutes
*******************************************************************************
Target pole/equ : undefined
Target radii    : undefined                                                    
Center geodetic : 289.2634, -30.2406227, 2.71233  {E-lon(deg),Lat(deg),Alt(km)}
Center cylindric: 289.2634,5517.21435,-3194.81213 {E-lon(deg),Dxy(km),Dz(km)}
Center pole/equ : ITRF93                          {East-longitude positive}
Center radii    : 6378.137, 6378.137, 6356.752 km {Equator_a, b, pole_c}       
Target primary  : Sun
Vis. interferer : MOON (R_eq= 1737.400) km        {source: DE441}
Rel. light bend : Sun                             {source: DE441}
Rel. lght bnd GM: 1.3271E+11 km^3/s^2                                          
Small-body perts: Yes                             {source: SB441-N16}
Atmos refraction: NO (AIRLESS)
RA format       : HMS
Time format     : CAL 
Calendar mode   : Mixed Julian/Gregorian
RTS-only print  : NO       
EOP file        : eop.240715.p241008                                           
EOP coverage    : DATA-BASED 1962-JAN-20 TO 2024-JUL-15. PREDICTS-> 2024-OCT-07
Units conversion: 1 au= 149597870.700 km, c= 299792.458 km/s, 1 day= 86400.0 s 
Table cut-offs 1: Elevation (-90.0deg=NO ),Airmass (>38.000=NO), Daylight (YES)
Table cut-offs 2: Solar elongation (  0.0,180.0=NO ),Local Hour Angle( 0.0=NO )
Table cut-offs 3: RA/DEC angular rate (     0.0=NO )                           
*******************************************************************************
Initial IAU76/J2000 heliocentric ecliptic osculating elements (au, days, deg.):
  EPOCH=  2458497.5 ! 2019-Jan-14.00 (TDB)         Residual RMS= .087899       
   EC= .1148313279028816   QR= .9946661968961306   TP= 2458526.093433633       
   OM= 299.8828960483019   W=  203.050931799211    IN= 7.281527766683049       
  Equivalent ICRF heliocentric cartesian coordinates (au, au/d):
   X=-3.982431103506237E-01  Y= 8.438985356712057E-01  Z= 3.820551439764541E-01
  VX=-1.601846206933958E-02 VY=-6.309373484980013E-03 VZ=-5.215303828559489E-03
Asteroid physical parameters (km, seconds, rotational period in hours):        
   GM= n.a.                RAD= n.a.               ROTPER= n.a.                
   H= 26.8                 G= .150                 B-V= n.a.                   
                           ALBEDO= n.a.            STYP= n.a.                  
*******************************************************************************
 Date__(UT)__HR:MN     R.A._________(ICRF)_________DEC
******************************************************
$$SOE
 2018-Dec-24 04:00  m  08 09 08.553990 +72 41 10.53574
 2018-Dec-24 04:01  m  08 09 08.550092 +72 41 10.33625
 2018-Dec-24 04:02  m  08 09 08.545916 +72 41 10.13536
 2018-Dec-24 04:03  m  08 09 08.541465 +72 41 09.93306
 2018-Dec-24 04:04  m  08 09 08.536740 +72 41 09.72935
 2018-Dec-24 04:05  m  08 09 08.531741 +72 41 09.52422
 2018-Dec-24 04:06  m  08 09 08.526471 +72 41 09.31767
 2018-Dec-24 04:07  m  08 09 08.520931 +72 41 09.10969
 2018-Dec-24 04:08  m  08 09 08.515122 +72 41 08.90028
 2018-Dec-24 04:09  m  08 09 08.509046 +72 41 08.68943
 2018-Dec-24 04:10  m  08 09 08.502704 +72 41 08.47713
 2018-Dec-24 04:11  m  08 09 08.496098 +72 41 08.26339
 2018-Dec-24 04:12  m  08 09 08.489229 +72 41 08.04820
 2018-Dec-24 04:13  m  08 09 08.482098 +72 41 07.83155
 2018-Dec-24 04:14  m  08 09 08.474707 +72 41 07.61344
 2018-Dec-24 04:15  m  08 09 08.467057 +72 41 07.39386
 2018-Dec-24 04:16  m  08 09 08.459150 +72 41 07.17281
 2018-Dec-24 04:17  m  08 09 08.450987 +72 41 06.95028
 2018-Dec-24 04:18  m  08 09 08.442570 +72 41 06.72627
 2018-Dec-24 04:19  m  08 09 08.433900 +72 41 06.50078
 2018-Dec-24 04:20  m  08 09 08.424978 +72 41 06.27379
 2018-Dec-24 04:21  m  08 09 08.415807 +72 41 06.04531
 2018-Dec-24 04:22  m  08 09 08.406387 +72 41 05.81533
 2018-Dec-24 04:23  m  08 09 08.396721 +72 41 05.58384
 2018-Dec-24 04:24  m  08 09 08.386809 +72 41 05.35085
 2018-Dec-24 04:25  m  08 09 08.376652 +72 41 05.11634
 2018-Dec-24 04:26  m  08 09 08.366254 +72 41 04.88031
 2018-Dec-24 04:27  m  08 09 08.355614 +72 41 04.64276
 2018-Dec-24 04:28  m  08 09 08.344735 +72 41 04.40368
 2018-Dec-24 04:29  m  08 09 08.333618 +72 41 04.16307
 2018-Dec-24 04:30  m  08 09 08.322265 +72 41 03.92093
 2018-Dec-24 04:31  m  08 09 08.310677 +72 41 03.67724
 2018-Dec-24 04:32  m  08 09 08.298855 +72 41 03.43201
 2018-Dec-24 04:33  m  08 09 08.286802 +72 41 03.18523
 2018-Dec-24 04:34  m  08 09 08.274518 +72 41 02.93690
 2018-Dec-24 04:35  m  08 09 08.262005 +72 41 02.68700
 2018-Dec-24 04:36  m  08 09 08.249266 +72 41 02.43555
 2018-Dec-24 04:37  m  08 09 08.236300 +72 41 02.18253
 2018-Dec-24 04:38  m  08 09 08.223111 +72 41 01.92794
 2018-Dec-24 04:39  m  08 09 08.209698 +72 41 01.67178
 2018-Dec-24 04:40  m  08 09 08.196065 +72 41 01.41403
 2018-Dec-24 04:41  m  08 09 08.182213 +72 41 01.15471
 2018-Dec-24 04:42  m  08 09 08.168142 +72 41 00.89379
 2018-Dec-24 04:43  m  08 09 08.153856 +72 41 00.63129
 2018-Dec-24 04:44  m  08 09 08.139354 +72 41 00.36719
 2018-Dec-24 04:45  m  08 09 08.124640 +72 41 00.10149
 2018-Dec-24 04:46  m  08 09 08.109714 +72 40 59.83419
 2018-Dec-24 04:47  m  08 09 08.094577 +72 40 59.56528
 2018-Dec-24 04:48  m  08 09 08.079233 +72 40 59.29476
 2018-Dec-24 04:49  m  08 09 08.063682 +72 40 59.02263
 2018-Dec-24 04:50  m  08 09 08.047926 +72 40 58.74888
 2018-Dec-24 04:51  m  08 09 08.031966 +72 40 58.47351
 2018-Dec-24 04:52  m  08 09 08.015804 +72 40 58.19651
 2018-Dec-24 04:53  m  08 09 07.999442 +72 40 57.91788
 2018-Dec-24 04:54  m  08 09 07.982881 +72 40 57.63762
 2018-Dec-24 04:55  m  08 09 07.966123 +72 40 57.35572
 2018-Dec-24 04:56  m  08 09 07.949170 +72 40 57.07218
 2018-Dec-24 04:57  m  08 09 07.932023 +72 40 56.78699
 2018-Dec-24 04:58  m  08 09 07.914683 +72 40 56.50016
 2018-Dec-24 04:59  m  08 09 07.897153 +72 40 56.21167
 2018-Dec-24 05:00  m  08 09 07.879434 +72 40 55.92153
 2018-Dec-24 05:01  m  08 09 07.861528 +72 40 55.62974
 2018-Dec-24 05:02  m  08 09 07.843437 +72 40 55.33628
 2018-Dec-24 05:03  m  08 09 07.825161 +72 40 55.04115
 2018-Dec-24 05:04  m  08 09 07.806703 +72 40 54.74436
 2018-Dec-24 05:05  m  08 09 07.788065 +72 40 54.44589
 2018-Dec-24 05:06  m  08 09 07.769247 +72 40 54.14575
 2018-Dec-24 05:07  m  08 09 07.750252 +72 40 53.84393
 2018-Dec-24 05:08  m  08 09 07.731082 +72 40 53.54042
 2018-Dec-24 05:09  m  08 09 07.711737 +72 40 53.23523
 2018-Dec-24 05:10  m  08 09 07.692220 +72 40 52.92836
 2018-Dec-24 05:11  m  08 09 07.672533 +72 40 52.61979
 2018-Dec-24 05:12  m  08 09 07.652676 +72 40 52.30952
 2018-Dec-24 05:13  m  08 09 07.632653 +72 40 51.99756
 2018-Dec-24 05:14  m  08 09 07.612464 +72 40 51.68390
 2018-Dec-24 05:15  m  08 09 07.592111 +72 40 51.36853
 2018-Dec-24 05:16  m  08 09 07.571596 +72 40 51.05145
 2018-Dec-24 05:17  m  08 09 07.550920 +72 40 50.73267
 2018-Dec-24 05:18  m  08 09 07.530085 +72 40 50.41217
 2018-Dec-24 05:19  m  08 09 07.509094 +72 40 50.08995
 2018-Dec-24 05:20  m  08 09 07.487947 +72 40 49.76602
 2018-Dec-24 05:21  m  08 09 07.466647 +72 40 49.44036
 2018-Dec-24 05:22  m  08 09 07.445194 +72 40 49.11298
 2018-Dec-24 05:23  m  08 09 07.423592 +72 40 48.78387
 2018-Dec-24 05:24  m  08 09 07.401841 +72 40 48.45303
 2018-Dec-24 05:25  m  08 09 07.379943 +72 40 48.12045
 2018-Dec-24 05:26  m  08 09 07.357900 +72 40 47.78614
 2018-Dec-24 05:27  m  08 09 07.335714 +72 40 47.45009
 2018-Dec-24 05:28  m  08 09 07.313386 +72 40 47.11230
 2018-Dec-24 05:29  m  08 09 07.290918 +72 40 46.77277
 2018-Dec-24 05:30  m  08 09 07.268313 +72 40 46.43149
 2018-Dec-24 05:31  m  08 09 07.245570 +72 40 46.08846
 2018-Dec-24 05:32  m  08 09 07.222694 +72 40 45.74368
 2018-Dec-24 05:33  m  08 09 07.199684 +72 40 45.39714
 2018-Dec-24 05:34  m  08 09 07.176543 +72 40 45.04885
 2018-Dec-24 05:35  m  08 09 07.153273 +72 40 44.69880
 2018-Dec-24 05:36  m  08 09 07.129876 +72 40 44.34699
 2018-Dec-24 05:37  m  08 09 07.106352 +72 40 43.99341
 2018-Dec-24 05:38  m  08 09 07.082704 +72 40 43.63807
 2018-Dec-24 05:39  m  08 09 07.058934 +72 40 43.28096
 2018-Dec-24 05:40  m  08 09 07.035043 +72 40 42.92208
 2018-Dec-24 05:41  m  08 09 07.011034 +72 40 42.56143
 2018-Dec-24 05:42  m  08 09 06.986907 +72 40 42.19900
 2018-Dec-24 05:43  m  08 09 06.962665 +72 40 41.83479
 2018-Dec-24 05:44  m  08 09 06.938310 +72 40 41.46880
 2018-Dec-24 05:45  m  08 09 06.913843 +72 40 41.10104
 2018-Dec-24 05:46  m  08 09 06.889266 +72 40 40.73149
 2018-Dec-24 05:47  m  08 09 06.864580 +72 40 40.36015
 2018-Dec-24 05:48  m  08 09 06.839789 +72 40 39.98703
 2018-Dec-24 05:49  m  08 09 06.814892 +72 40 39.61211
 2018-Dec-24 05:50  m  08 09 06.789893 +72 40 39.23541
 2018-Dec-24 05:51  m  08 09 06.764793 +72 40 38.85691
 2018-Dec-24 05:52  m  08 09 06.739593 +72 40 38.47661
 2018-Dec-24 05:53  m  08 09 06.714296 +72 40 38.09452
 2018-Dec-24 05:54  m  08 09 06.688904 +72 40 37.71063
 2018-Dec-24 05:55  m  08 09 06.663417 +72 40 37.32494
 2018-Dec-24 05:56  m  08 09 06.637838 +72 40 36.93745
 2018-Dec-24 05:57  m  08 09 06.612169 +72 40 36.54815
 2018-Dec-24 05:58  m  08 09 06.586412 +72 40 36.15705
 2018-Dec-24 05:59  m  08 09 06.560567 +72 40 35.76414
 2018-Dec-24 06:00  m  08 09 06.534638 +72 40 35.36942
 2018-Dec-24 06:01  m  08 09 06.508626 +72 40 34.97289
 2018-Dec-24 06:02  m  08 09 06.482533 +72 40 34.57455
